OCEANSAT-2              
1 35931U 09051A   26188.85900889 -.00000183  00000+0 -99553-4 0  9996
2 35931  98.2318 173.6468 0016846 174.8056 185.3288 13.99657466882228
PLEIADES 1A             
1 38012U 11076F   26188.85738245  .00000041  00000+0  18634-4 0  9996
2 38012  98.1966 263.6822 0001738  82.5790  51.9706 14.58543868775003
PLEIADES 1B             
1 39019U 12068A   26188.86567657  .00000178  00000+0  48096-4 0  9990
2 39019  98.1936 263.6325 0001631  81.5763 278.5622 14.58573835723865
PATHFINDER 1            
1 41787U 16059E   26188.72579370  .00000500  00000+0  95536-4 0  9999
2 41787  97.8171 187.0755 0029434 138.5735 221.7710 14.67687285522721
PAZ                     
1 43215U 18020A   26188.85551345  .00001539  00000+0  76441-4 0  9990
2 43215  97.4451 195.9473 0001663  86.4654 273.6771 15.19156806464148
NOVASAR 1               
1 43619U 18071B   26188.85255273  .00000571  00000+0  55435-4 0  9990
2 43619  97.5034  60.3220 0001755  75.9734 284.1683 14.96260232426020
PLEIADES NEO 3          
1 48268U 21034A   26188.85055273 -.00000292  00000+0 -30522-4 0  9998
2 48268  97.8935 263.3198 0001337  91.6002 268.5364 14.81672263280717
PLEIADES NEO 4          
1 49070U 21073E   26188.41157615 -.00000002  00000+0  63105-5 0  9990
2 49070  97.8931 262.8836 0001292  91.3078 268.8283 14.81677754264364
NOAA 21 (JPSS-2)        
1 54234U 22150A   26188.75672206  .00000033  00000+0  36338-4 0  9990
2 54234  98.7060 127.2004 0002638 117.7169 242.4275 14.19540264189467
PARS 1                  
1 59065U 24039Q   26188.89793939  .00007937  00000+0  16333-3 0  9999
2 59065  97.4834 170.4771 0010661  50.5568 309.6623 15.46176550131848
