{
 "generated_at": "2026-07-08T07:29:27Z",
 "sources": [
  {
   "name": "CelesTrak",
   "url": "https://celestrak.org/NORAD/elements/",
   "license": "frei verfügbar; Attribution. Ursprünglich USSPACECOM/Space-Track."
  },
  {
   "name": "GCAT (J. McDowell, planet4589.org)",
   "url": "https://planet4589.org/space/gcat/",
   "license": "CC-BY 4.0"
  }
 ],
 "satellites": [
  {
   "norad": 54234,
   "name": "NOAA 21 (JPSS-2)",
   "intl": "2022-150A",
   "group": "weather",
   "gcat": {
    "class": "C",
    "category": "MET",
    "owner": "GSFC/NOAA",
    "state": "US"
   },
   "omm": {
    "OBJECT_NAME": "NOAA 21 (JPSS-2)",
    "OBJECT_ID": "2022-150A",
    "EPOCH": "2026-07-07T18:09:40.785984",
    "MEAN_MOTION": 14.19540264,
    "ECCENTRICITY": 0.0002638,
    "INCLINATION": 98.706,
    "RA_OF_ASC_NODE": 127.2004,
    "ARG_OF_PERICENTER": 117.7169,
    "MEAN_ANOMALY": 242.4275,
    "EPHEMERIS_TYPE": 0,
    "CLASSIFICATION_TYPE": "U",
    "NORAD_CAT_ID": 54234,
    "ELEMENT_SET_NO": 999,
    "REV_AT_EPOCH": 18946,
    "BSTAR": 0.000036338,
    "MEAN_MOTION_DOT": 3.3e-7,
    "MEAN_MOTION_DDOT": 0
   }
  },
  {
   "norad": 43619,
   "name": "NOVASAR 1",
   "intl": "2018-071B",
   "group": "sar",
   "gcat": {
    "class": "B",
    "category": "IMG",
    "owner": "SSTLA",
    "state": "UK"
   },
   "omm": {
    "OBJECT_NAME": "NOVASAR 1",
    "OBJECT_ID": "2018-071B",
    "EPOCH": "2026-07-07T20:27:40.555872",
    "MEAN_MOTION": 14.96260232,
    "ECCENTRICITY": 0.0001755,
    "INCLINATION": 97.5034,
    "RA_OF_ASC_NODE": 60.322,
    "ARG_OF_PERICENTER": 75.9734,
    "MEAN_ANOMALY": 284.1683,
    "EPHEMERIS_TYPE": 0,
    "CLASSIFICATION_TYPE": "U",
    "NORAD_CAT_ID": 43619,
    "ELEMENT_SET_NO": 999,
    "REV_AT_EPOCH": 42602,
    "BSTAR": 0.000055435,
    "MEAN_MOTION_DOT": 0.00000571,
    "MEAN_MOTION_DDOT": 0
   }
  },
  {
   "norad": 35931,
   "name": "OCEANSAT-2",
   "intl": "2009-051A",
   "group": "resource",
   "gcat": {
    "class": null,
    "category": null,
    "owner": null,
    "state": null
   },
   "omm": {
    "OBJECT_NAME": "OCEANSAT-2",
    "OBJECT_ID": "2009-051A",
    "EPOCH": "2026-07-07T20:36:58.368096",
    "MEAN_MOTION": 13.99657466,
    "ECCENTRICITY": 0.0016846,
    "INCLINATION": 98.2318,
    "RA_OF_ASC_NODE": 173.6468,
    "ARG_OF_PERICENTER": 174.8056,
    "MEAN_ANOMALY": 185.3288,
    "EPHEMERIS_TYPE": 0,
    "CLASSIFICATION_TYPE": "U",
    "NORAD_CAT_ID": 35931,
    "ELEMENT_SET_NO": 999,
    "REV_AT_EPOCH": 88222,
    "BSTAR": -0.000099553,
    "MEAN_MOTION_DOT": -0.00000183,
    "MEAN_MOTION_DDOT": 0
   }
  },
  {
   "norad": 59065,
   "name": "PARS 1",
   "intl": "2024-039Q",
   "group": "resource",
   "gcat": {
    "class": "C",
    "category": "IMG",
    "owner": "IRSA",
    "state": "IR"
   },
   "omm": {
    "OBJECT_NAME": "PARS 1",
    "OBJECT_ID": "2024-039Q",
    "EPOCH": "2026-07-07T21:33:01.963296",
    "MEAN_MOTION": 15.4617655,
    "ECCENTRICITY": 0.0010661,
    "INCLINATION": 97.4834,
    "RA_OF_ASC_NODE": 170.4771,
    "ARG_OF_PERICENTER": 50.5568,
    "MEAN_ANOMALY": 309.6623,
    "EPHEMERIS_TYPE": 0,
    "CLASSIFICATION_TYPE": "U",
    "NORAD_CAT_ID": 59065,
    "ELEMENT_SET_NO": 999,
    "REV_AT_EPOCH": 13184,
    "BSTAR": 0.00016333,
    "MEAN_MOTION_DOT": 0.00007937,
    "MEAN_MOTION_DDOT": 0
   }
  },
  {
   "norad": 41787,
   "name": "PATHFINDER 1",
   "intl": "2016-059E",
   "group": "resource",
   "gcat": {
    "class": null,
    "category": null,
    "owner": null,
    "state": null
   },
   "omm": {
    "OBJECT_NAME": "PATHFINDER 1",
    "OBJECT_ID": "2016-059E",
    "EPOCH": "2026-07-07T17:25:08.575680",
    "MEAN_MOTION": 14.67687285,
    "ECCENTRICITY": 0.0029434,
    "INCLINATION": 97.8171,
    "RA_OF_ASC_NODE": 187.0755,
    "ARG_OF_PERICENTER": 138.5735,
    "MEAN_ANOMALY": 221.771,
    "EPHEMERIS_TYPE": 0,
    "CLASSIFICATION_TYPE": "U",
    "NORAD_CAT_ID": 41787,
    "ELEMENT_SET_NO": 999,
    "REV_AT_EPOCH": 52272,
    "BSTAR": 0.000095536,
    "MEAN_MOTION_DOT": 0.000005,
    "MEAN_MOTION_DDOT": 0
   }
  },
  {
   "norad": 43215,
   "name": "PAZ",
   "intl": "2018-020A",
   "group": "sar",
   "gcat": {
    "class": "D",
    "category": "IMG-R",
    "owner": "HISD",
    "state": "E"
   },
   "omm": {
    "OBJECT_NAME": "PAZ",
    "OBJECT_ID": "2018-020A",
    "EPOCH": "2026-07-07T20:31:56.362080",
    "MEAN_MOTION": 15.19156806,
    "ECCENTRICITY": 0.0001663,
    "INCLINATION": 97.4451,
    "RA_OF_ASC_NODE": 195.9473,
    "ARG_OF_PERICENTER": 86.4654,
    "MEAN_ANOMALY": 273.6771,
    "EPHEMERIS_TYPE": 0,
    "CLASSIFICATION_TYPE": "U",
    "NORAD_CAT_ID": 43215,
    "ELEMENT_SET_NO": 999,
    "REV_AT_EPOCH": 46414,
    "BSTAR": 0.000076441,
    "MEAN_MOTION_DOT": 0.00001539,
    "MEAN_MOTION_DDOT": 0
   }
  },
  {
   "norad": 38012,
   "name": "PLEIADES 1A",
   "intl": "2011-076F",
   "group": "resource",
   "gcat": {
    "class": null,
    "category": "IMG",
    "owner": "CNES/DGA",
    "state": "F"
   },
   "omm": {
    "OBJECT_NAME": "PLEIADES 1A",
    "OBJECT_ID": "2011-076F",
    "EPOCH": "2026-07-07T20:34:37.843680",
    "MEAN_MOTION": 14.58543868,
    "ECCENTRICITY": 0.0001738,
    "INCLINATION": 98.1966,
    "RA_OF_ASC_NODE": 263.6822,
    "ARG_OF_PERICENTER": 82.579,
    "MEAN_ANOMALY": 51.9706,
    "EPHEMERIS_TYPE": 0,
    "CLASSIFICATION_TYPE": "U",
    "NORAD_CAT_ID": 38012,
    "ELEMENT_SET_NO": 999,
    "REV_AT_EPOCH": 77500,
    "BSTAR": 0.000018634,
    "MEAN_MOTION_DOT": 4.1e-7,
    "MEAN_MOTION_DDOT": 0
   }
  },
  {
   "norad": 39019,
   "name": "PLEIADES 1B",
   "intl": "2012-068A",
   "group": "resource",
   "gcat": {
    "class": null,
    "category": "IMG",
    "owner": "CNES",
    "state": "F"
   },
   "omm": {
    "OBJECT_NAME": "PLEIADES 1B",
    "OBJECT_ID": "2012-068A",
    "EPOCH": "2026-07-07T20:46:34.455648",
    "MEAN_MOTION": 14.58573835,
    "ECCENTRICITY": 0.0001631,
    "INCLINATION": 98.1936,
    "RA_OF_ASC_NODE": 263.6325,
    "ARG_OF_PERICENTER": 81.5763,
    "MEAN_ANOMALY": 278.5622,
    "EPHEMERIS_TYPE": 0,
    "CLASSIFICATION_TYPE": "U",
    "NORAD_CAT_ID": 39019,
    "ELEMENT_SET_NO": 999,
    "REV_AT_EPOCH": 72386,
    "BSTAR": 0.000048096,
    "MEAN_MOTION_DOT": 0.00000178,
    "MEAN_MOTION_DDOT": 0
   }
  },
  {
   "norad": 48268,
   "name": "PLEIADES NEO 3",
   "intl": "2021-034A",
   "group": "resource",
   "gcat": {
    "class": null,
    "category": "IMG",
    "owner": "ADSTI",
    "state": "F"
   },
   "omm": {
    "OBJECT_NAME": "PLEIADES NEO 3",
    "OBJECT_ID": "2021-034A",
    "EPOCH": "2026-07-07T20:24:47.755872",
    "MEAN_MOTION": 14.81672263,
    "ECCENTRICITY": 0.0001337,
    "INCLINATION": 97.8935,
    "RA_OF_ASC_NODE": 263.3198,
    "ARG_OF_PERICENTER": 91.6002,
    "MEAN_ANOMALY": 268.5364,
    "EPHEMERIS_TYPE": 0,
    "CLASSIFICATION_TYPE": "U",
    "NORAD_CAT_ID": 48268,
    "ELEMENT_SET_NO": 999,
    "REV_AT_EPOCH": 28071,
    "BSTAR": -0.000030522,
    "MEAN_MOTION_DOT": -0.00000292,
    "MEAN_MOTION_DDOT": 0
   }
  },
  {
   "norad": 49070,
   "name": "PLEIADES NEO 4",
   "intl": "2021-073E",
   "group": "resource",
   "gcat": {
    "class": null,
    "category": "IMG",
    "owner": "ADSTI",
    "state": "F"
   },
   "omm": {
    "OBJECT_NAME": "PLEIADES NEO 4",
    "OBJECT_ID": "2021-073E",
    "EPOCH": "2026-07-07T09:52:40.179360",
    "MEAN_MOTION": 14.81677754,
    "ECCENTRICITY": 0.00012925,
    "INCLINATION": 97.8931,
    "RA_OF_ASC_NODE": 262.8836,
    "ARG_OF_PERICENTER": 91.3078,
    "MEAN_ANOMALY": 268.8283,
    "EPHEMERIS_TYPE": 0,
    "CLASSIFICATION_TYPE": "U",
    "NORAD_CAT_ID": 49070,
    "ELEMENT_SET_NO": 999,
    "REV_AT_EPOCH": 26436,
    "BSTAR": 0.000006310521,
    "MEAN_MOTION_DOT": -2e-8,
    "MEAN_MOTION_DDOT": 0
   }
  }
 ]
}
